ONEWEB-0377             
1 49303U 21090AA  23230.09391828  .00000073  00000+0  14786-3 0  9999
2 49303  87.9216 120.3383 0002140  79.7467 280.3907 13.20773242 95296
ONEWEB-0378             
1 49304U 21090AB  23230.05707311  .00000098  00000+0  20967-3 0  9999
2 49304  87.9219 120.3396 0001554  73.5708 286.5596 13.20769711 94592
ONEWEB-0379             
1 49305U 21090AC  23229.67195572  .00000050  00000+0  10093-3 0  9993
2 49305  87.9043 135.6342 0001847  79.8353 280.2985 13.14500805 92959
ONEWEB-0380             
1 49306U 21090AD  23229.05687006  .00000077  00000+0  16018-3 0  9996
2 49306  87.9288 150.9529 0002230  76.7910 283.3472 13.19728225 91171
ONEWEB-0381             
1 49307U 21090AE  23230.07919302 -.00000039  00000+0 -12741-3 0  9997
2 49307  87.9281 120.2646 0001987  75.8141 284.3213 13.20772188 94625
ONEWEB-0382             
1 49308U 21090AF  23230.14231917  .00000113  00000+0  24498-3 0  9998
2 49308  87.9220 120.3261 0001782  69.4024 290.7301 13.20771244 94637
ONEWEB-0383             
1 49309U 21090AG  23230.12232705  .00000320  00000+0  82756-3 0  9994
2 49309  87.9042 135.5267 0001685  76.9599 283.1719 13.14505996 93030
ONEWEB-0384             
1 49310U 21090AH  23229.15326225  .00000053  00000+0  98565-4 0  9997
2 49310  87.9221 120.5192 0001545  57.7579 302.3703 13.20774719 94511
